[
  {
    "OBJECT_NAME": "STARLINK-35150",
    "OBJECT_ID": "25210P",
    "EPOCH": "2025-11-11T08:00:03.000384",
    "MEAN_MOTION": 15.30098696,
    "ECCENTRICITY": 8.91e-05,
    "INCLINATION": 53.1608,
    "RA_OF_ASC_NODE": 137.0949,
    "ARG_OF_PERICENTER": 43.7688,
    "MEAN_ANOMALY": 59.0537,
    "EPHEMERIS_TYPE": 0,
    "CLASSIFICATION_TYPE": "U",
    "NORAD_CAT_ID": 65635,
    "ELEMENT_SET_NO": 999,
    "REV_AT_EPOCH": 583,
    "BSTAR": 0.0030641,
    "MEAN_MOTION_DOT": 0.00091224,
    "MEAN_MOTION_DDOT": 0.0,
    "TLE_LINE1": "1 65635U 25210P   25315.33336806  .00091224  00000+0  30641-2 0  9996",
    "TLE_LINE2": "2 65635  53.1608 137.0949 0000891  43.7688  59.0537 15.30098696  5839",
    "COMMENT": "Grouped by shell and plane from TLE"
  },
  {
    "OBJECT_NAME": "STARLINK-35209",
    "OBJECT_ID": "25210Q",
    "EPOCH": "2025-11-11T05:23:17.865312",
    "MEAN_MOTION": 15.39647022,
    "ECCENTRICITY": 0.0003226,
    "INCLINATION": 53.1564,
    "RA_OF_ASC_NODE": 138.045,
    "ARG_OF_PERICENTER": 80.032,
    "MEAN_ANOMALY": 280.1049,
    "EPHEMERIS_TYPE": 0,
    "CLASSIFICATION_TYPE": "U",
    "NORAD_CAT_ID": 65636,
    "ELEMENT_SET_NO": 999,
    "REV_AT_EPOCH": 958,
    "BSTAR": 0.0020225,
    "MEAN_MOTION_DOT": 0.00081448,
    "MEAN_MOTION_DDOT": 0.0,
    "TLE_LINE1": "1 65636U 25210Q   25315.22451233  .00081448  00000+0  20225-2 0  9991",
    "TLE_LINE2": "2 65636  53.1564 138.0450 0003226  80.0320 280.1049 15.39647022  9584",
    "COMMENT": "Grouped by shell and plane from TLE"
  },
  {
    "OBJECT_NAME": "STARLINK-35147",
    "OBJECT_ID": "25210R",
    "EPOCH": "2025-11-10T21:29:12.665472",
    "MEAN_MOTION": 15.39653703,
    "ECCENTRICITY": 2.24e-05,
    "INCLINATION": 53.159,
    "RA_OF_ASC_NODE": 139.5417,
    "ARG_OF_PERICENTER": 106.9196,
    "MEAN_ANOMALY": 253.1833,
    "EPHEMERIS_TYPE": 0,
    "CLASSIFICATION_TYPE": "U",
    "NORAD_CAT_ID": 65637,
    "ELEMENT_SET_NO": 999,
    "REV_AT_EPOCH": 953,
    "BSTAR": 0.0016274,
    "MEAN_MOTION_DOT": 0.00065326,
    "MEAN_MOTION_DDOT": 0.0,
    "TLE_LINE1": "1 65637U 25210R   25314.89528548  .00065326  00000+0  16274-2 0  9994",
    "TLE_LINE2": "2 65637  53.1590 139.5417 0000224 106.9196 253.1833 15.39653703  9536",
    "COMMENT": "Grouped by shell and plane from TLE"
  },
  {
    "OBJECT_NAME": "STARLINK-35213",
    "OBJECT_ID": "25210S",
    "EPOCH": "2025-11-11T05:09:54.695232",
    "MEAN_MOTION": 15.39632441,
    "ECCENTRICITY": 0.000188,
    "INCLINATION": 53.1576,
    "RA_OF_ASC_NODE": 137.9832,
    "ARG_OF_PERICENTER": 75.6657,
    "MEAN_ANOMALY": 284.4556,
    "EPHEMERIS_TYPE": 0,
    "CLASSIFICATION_TYPE": "U",
    "NORAD_CAT_ID": 65638,
    "ELEMENT_SET_NO": 999,
    "REV_AT_EPOCH": 958,
    "BSTAR": 0.0009402000000000001,
    "MEAN_MOTION_DOT": 0.00037408,
    "MEAN_MOTION_DDOT": 0.0,
    "TLE_LINE1": "1 65638U 25210S   25315.21521638  .00037408  00000+0  94020-3 0  9991",
    "TLE_LINE2": "2 65638  53.1576 137.9832 0001880  75.6657 284.4556 15.39632441  9587",
    "COMMENT": "Grouped by shell and plane from TLE"
  },
  {
    "OBJECT_NAME": "STARLINK-35127",
    "OBJECT_ID": "25210T",
    "EPOCH": "2025-11-11T05:02:44.555424",
    "MEAN_MOTION": 15.39665485,
    "ECCENTRICITY": 6.69e-05,
    "INCLINATION": 53.1548,
    "RA_OF_ASC_NODE": 137.9509,
    "ARG_OF_PERICENTER": 49.2147,
    "MEAN_ANOMALY": 310.8916,
    "EPHEMERIS_TYPE": 0,
    "CLASSIFICATION_TYPE": "U",
    "NORAD_CAT_ID": 65639,
    "ELEMENT_SET_NO": 999,
    "REV_AT_EPOCH": 958,
    "BSTAR": 0.0013721,
    "MEAN_MOTION_DOT": 0.00054964,
    "MEAN_MOTION_DDOT": 0.0,
    "TLE_LINE1": "1 65639U 25210T   25315.21023791  .00054964  00000+0  13721-2 0  9993",
    "TLE_LINE2": "2 65639  53.1548 137.9509 0000669  49.2147 310.8916 15.39665485  9581",
    "COMMENT": "Grouped by shell and plane from TLE"
  },
  {
    "OBJECT_NAME": "STARLINK-35091",
    "OBJECT_ID": "25210U",
    "EPOCH": "2025-11-11T04:56:03.629184",
    "MEAN_MOTION": 15.39667118,
    "ECCENTRICITY": 7.88e-05,
    "INCLINATION": 53.1586,
    "RA_OF_ASC_NODE": 137.9233,
    "ARG_OF_PERICENTER": 59.0423,
    "MEAN_ANOMALY": 301.0659,
    "EPHEMERIS_TYPE": 0,
    "CLASSIFICATION_TYPE": "U",
    "NORAD_CAT_ID": 65640,
    "ELEMENT_SET_NO": 999,
    "REV_AT_EPOCH": 958,
    "BSTAR": 0.0025963,
    "MEAN_MOTION_DOT": 0.00105054,
    "MEAN_MOTION_DDOT": 0.0,
    "TLE_LINE1": "1 65640U 25210U   25315.20559756  .00105054  00000+0  25963-2 0  9997",
    "TLE_LINE2": "2 65640  53.1586 137.9233 0000788  59.0423 301.0659 15.39667118  9588",
    "COMMENT": "Grouped by shell and plane from TLE"
  },
  {
    "OBJECT_NAME": "STARLINK-35134",
    "OBJECT_ID": "25210V",
    "EPOCH": "2025-11-10T19:28:31.014048",
    "MEAN_MOTION": 15.39632537,
    "ECCENTRICITY": 0.0001108,
    "INCLINATION": 53.159,
    "RA_OF_ASC_NODE": 139.7276,
    "ARG_OF_PERICENTER": 73.4777,
    "MEAN_ANOMALY": 286.635,
    "EPHEMERIS_TYPE": 0,
    "CLASSIFICATION_TYPE": "U",
    "NORAD_CAT_ID": 65641,
    "ELEMENT_SET_NO": 999,
    "REV_AT_EPOCH": 952,
    "BSTAR": 0.0020496,
    "MEAN_MOTION_DOT": 0.00082509,
    "MEAN_MOTION_DDOT": 0.0,
    "TLE_LINE1": "1 65641U 25210V   25314.81147007  .00082509  00000+0  20496-2 0  9991",
    "TLE_LINE2": "2 65641  53.1590 139.7276 0001108  73.4777 286.6350 15.39632537  9527",
    "COMMENT": "Grouped by shell and plane from TLE"
  },
  {
    "OBJECT_NAME": "STARLINK-35109",
    "OBJECT_ID": "25210W",
    "EPOCH": "2025-11-10T19:21:49.902048",
    "MEAN_MOTION": 15.39631547,
    "ECCENTRICITY": 0.0001751,
    "INCLINATION": 53.1536,
    "RA_OF_ASC_NODE": 139.6969,
    "ARG_OF_PERICENTER": 90.6449,
    "MEAN_ANOMALY": 269.4757,
    "EPHEMERIS_TYPE": 0,
    "CLASSIFICATION_TYPE": "U",
    "NORAD_CAT_ID": 65642,
    "ELEMENT_SET_NO": 999,
    "REV_AT_EPOCH": 952,
    "BSTAR": 0.0014447,
    "MEAN_MOTION_DOT": 0.00057852,
    "MEAN_MOTION_DDOT": 0.0,
    "TLE_LINE1": "1 65642U 25210W   25314.80682757  .00057852  00000+0  14447-2 0  9999",
    "TLE_LINE2": "2 65642  53.1536 139.6969 0001751  90.6449 269.4757 15.39631547  9527",
    "COMMENT": "Grouped by shell and plane from TLE"
  },
  {
    "OBJECT_NAME": "STARLINK-35062",
    "OBJECT_ID": "25210X",
    "EPOCH": "2025-11-10T19:15:37.126656",
    "MEAN_MOTION": 15.39644512,
    "ECCENTRICITY": 0.0001519,
    "INCLINATION": 53.1594,
    "RA_OF_ASC_NODE": 139.6699,
    "ARG_OF_PERICENTER": 96.2643,
    "MEAN_ANOMALY": 263.8535,
    "EPHEMERIS_TYPE": 0,
    "CLASSIFICATION_TYPE": "U",
    "NORAD_CAT_ID": 65643,
    "ELEMENT_SET_NO": 999,
    "REV_AT_EPOCH": 952,
    "BSTAR": 0.0018418000000000002,
    "MEAN_MOTION_DOT": 0.00074048,
    "MEAN_MOTION_DDOT": 0.0,
    "TLE_LINE1": "1 65643U 25210X   25314.80251304  .00074048  00000+0  18418-2 0  9998",
    "TLE_LINE2": "2 65643  53.1594 139.6699 0001519  96.2643 263.8535 15.39644512  9520",
    "COMMENT": "Grouped by shell and plane from TLE"
  },
  {
    "OBJECT_NAME": "STARLINK-35141",
    "OBJECT_ID": "25210Y",
    "EPOCH": "2025-11-11T08:00:03.000384",
    "MEAN_MOTION": 15.30076576,
    "ECCENTRICITY": 9.71e-05,
    "INCLINATION": 53.1605,
    "RA_OF_ASC_NODE": 137.1279,
    "ARG_OF_PERICENTER": 120.9535,
    "MEAN_ANOMALY": 324.5197,
    "EPHEMERIS_TYPE": 0,
    "CLASSIFICATION_TYPE": "U",
    "NORAD_CAT_ID": 65644,
    "ELEMENT_SET_NO": 999,
    "REV_AT_EPOCH": 590,
    "BSTAR": 0.0027411999999999996,
    "MEAN_MOTION_DOT": 0.00081409,
    "MEAN_MOTION_DDOT": 0.0,
    "TLE_LINE1": "1 65644U 25210Y   25315.33336806  .00081409  00000+0  27412-2 0  9992",
    "TLE_LINE2": "2 65644  53.1605 137.1279 0000971 120.9535 324.5197 15.30076576  5904",
    "COMMENT": "Grouped by shell and plane from TLE"
  },
  {
    "OBJECT_NAME": "STARLINK-35183",
    "OBJECT_ID": "25210AA",
    "EPOCH": "2025-11-11T08:00:03.000384",
    "MEAN_MOTION": 15.32004264,
    "ECCENTRICITY": 0.0001028,
    "INCLINATION": 53.1605,
    "RA_OF_ASC_NODE": 137.0597,
    "ARG_OF_PERICENTER": 55.4261,
    "MEAN_ANOMALY": 63.9738,
    "EPHEMERIS_TYPE": 0,
    "CLASSIFICATION_TYPE": "U",
    "NORAD_CAT_ID": 65646,
    "ELEMENT_SET_NO": 999,
    "REV_AT_EPOCH": 590,
    "BSTAR": 0.0,
    "MEAN_MOTION_DOT": -0.02623916,
    "MEAN_MOTION_DDOT": 0.0,
    "TLE_LINE1": "1 65646U 25210AA  25315.33336806 -.02623916  00000+0 -93659-1 0  9998",
    "TLE_LINE2": "2 65646  53.1605 137.0597 0001028  55.4261  63.9738 15.32004264  5902",
    "COMMENT": "Grouped by shell and plane from TLE"
  },
  {
    "OBJECT_NAME": "STARLINK-35202",
    "OBJECT_ID": "25210AB",
    "EPOCH": "2025-11-11T08:00:03.000384",
    "MEAN_MOTION": 15.32921069,
    "ECCENTRICITY": 0.0001493,
    "INCLINATION": 53.1606,
    "RA_OF_ASC_NODE": 137.0028,
    "ARG_OF_PERICENTER": 72.0587,
    "MEAN_ANOMALY": 75.4464,
    "EPHEMERIS_TYPE": 0,
    "CLASSIFICATION_TYPE": "U",
    "NORAD_CAT_ID": 65647,
    "ELEMENT_SET_NO": 999,
    "REV_AT_EPOCH": 595,
    "BSTAR": 0.0,
    "MEAN_MOTION_DOT": -0.03140942,
    "MEAN_MOTION_DDOT": 0.0,
    "TLE_LINE1": "1 65647U 25210AB  25315.33336806 -.03140942  00000+0 -11150+0 0  9997",
    "TLE_LINE2": "2 65647  53.1606 137.0028 0001493  72.0587  75.4464 15.32921069  5955",
    "COMMENT": "Grouped by shell and plane from TLE"
  },
  {
    "OBJECT_NAME": "STARLINK-34868",
    "OBJECT_ID": "25210AC",
    "EPOCH": "2025-11-11T08:00:03.000384",
    "MEAN_MOTION": 15.31566447,
    "ECCENTRICITY": 0.0001336,
    "INCLINATION": 53.1598,
    "RA_OF_ASC_NODE": 136.9045,
    "ARG_OF_PERICENTER": 79.8464,
    "MEAN_ANOMALY": 115.2773,
    "EPHEMERIS_TYPE": 0,
    "CLASSIFICATION_TYPE": "U",
    "NORAD_CAT_ID": 65648,
    "ELEMENT_SET_NO": 999,
    "REV_AT_EPOCH": 574,
    "BSTAR": 0.0,
    "MEAN_MOTION_DOT": -0.01830349,
    "MEAN_MOTION_DDOT": 0.0,
    "TLE_LINE1": "1 65648U 25210AC  25315.33336806 -.01830349  00000+0 -65969-1 0  9992",
    "TLE_LINE2": "2 65648  53.1598 136.9045 0001336  79.8464 115.2773 15.31566447  5745",
    "COMMENT": "Grouped by shell and plane from TLE"
  }
]